ORBCOMM FM05 [-]        
1 25117U 97084F   24037.61882057  .00002024  00000+0  65283-3 0  9991
2 25117  45.0144 224.8884 0002538 235.5236 124.5375 14.42114367368834
ORBCOMM FM06 [+]        
1 25118U 97084G   24038.55631553  .00002709  00000+0  85913-3 0  9991
2 25118  45.0126 220.5962 0001821 242.5010 159.2030 14.42108018369882
ORBCOMM FM07 [-]        
1 25119U 97084H   24038.53480038  .00002518  00000+0  80296-3 0  9997
2 25119  45.0122 221.1861 0003443 229.0196 131.0356 14.42039542369874
ORBCOMM FM03 [-]        
1 25158U 98007B   24038.39973283  .00001580  00000+0  63199-3 0  9990
2 25158 107.9756 199.1422 0045829  32.1832 328.2090 14.31796075353012
ORBCOMM FM04 [+]        
1 25159U 98007C   24038.40502121  .00001704  00000+0  67579-3 0  9996
2 25159 107.9744 202.0287 0041427  29.7362 330.6120 14.32052026353184
ORBCOMM FM17 [-]        
1 25413U 98046A   24038.13843648  .00001506  00000+0  59864-3 0  9992
2 25413  44.9951  74.3277 0004206 256.3451 103.6927 14.32778460331970
ORBCOMM FM18 [-]        
1 25414U 98046B   24038.58695275  .00002695  00000+0  97820-3 0  9997
2 25414  44.9953   1.2432 0005968 307.7709  52.2597 14.35426445332966
ORBCOMM FM19 [+]        
1 25415U 98046C   24038.64491052  .00002470  00000+0  90339-3 0  9991
2 25415  44.9962   2.2572 0004837 302.0086 228.0667 14.35269640332933
